IRIDIUM 150             
1 43257U 18030J   23284.38883210  .00000529  00000+0  18173-3 0  9993
2 43257  86.3999 339.9726 0001833  94.6323 265.5082 14.34222098289741
IRIDIUM 143             
1 43258U 18030K   23283.53258124 -.00000069  00000+0 -31801-4 0  9995
2 43258  86.4002 340.3834 0002011  99.6914 260.4509 14.34220903289565
IRIDIUM 161             
1 43478U 18047C   23283.83088595  .00000741  00000+0  21427-3 0  9990
2 43478  86.4489 138.2362 0002100  82.6132 277.5308 14.43279276283737
IRIDIUM 152             
1 43479U 18047D   23283.85414129  .00000560  00000+0  19305-3 0  9990
2 43479  86.3963 138.0864 0002126  92.1812 267.9627 14.34219875281978
IRIDIUM 147             
1 43480U 18047E   23284.34886220  .00000558  00000+0  19230-3 0  9996
2 43480  86.3963 137.8676 0002248  80.6954 279.4496 14.34221443282047
IRIDIUM 110             
1 43481U 18047F   23284.56450954  .00000600  00000+0  20726-3 0  9992
2 43481  86.3965 137.8437 0002107  78.1045 282.0387 14.34222233282061
IRIDIUM 162             
1 43482U 18047G   23283.68588083  .00000028  00000+0  23285-5 0  9999
2 43482  86.4491 138.2003 0002122  85.2954 274.8489 14.43275337283703
IRIDIUM 160             
1 43569U 18061A   23283.88243015  .00000254  00000+0  83466-4 0  9993
2 43569  86.3915 106.4949 0002356  91.3654 268.7812 14.34221500272869
